[{"OBJECT_NAME":"ONEWEB-0259","OBJECT_ID":"2021-060L","EPOCH":"2026-03-09T22:07:39.256032","MEAN_MOTION":13.16593786,"ECCENTRICITY":0.00017722,"INCLINATION":87.9005,"RA_OF_ASC_NODE":248.5251,"ARG_OF_PERICENTER":98.8623,"MEAN_ANOMALY":261.2709,"EPHEMERIS_TYPE":0,"CLASSIFICATION_TYPE":"U","NORAD_CAT_ID":48977,"ELEMENT_SET_NO":999,"REV_AT_EPOCH":22656,"BSTAR":0.00014223059,"MEAN_MOTION_DOT":6.7e-7,"MEAN_MOTION_DDOT":0},{"OBJECT_NAME":"SL-14 DEB","OBJECT_ID":"1991-056BK","EPOCH":"2026-03-08T19:05:09.771072","MEAN_MOTION":13.19468012,"ECCENTRICITY":0.00216461,"INCLINATION":82.5627,"RA_OF_ASC_NODE":205.6097,"ARG_OF_PERICENTER":347.4477,"MEAN_ANOMALY":12.6105,"EPHEMERIS_TYPE":0,"CLASSIFICATION_TYPE":"U","NORAD_CAT_ID":45321,"ELEMENT_SET_NO":999,"REV_AT_EPOCH":29013,"BSTAR":0.00036913689,"MEAN_MOTION_DOT":1.6e-6,"MEAN_MOTION_DDOT":0}]
